GLOBALSTAR M084 [+]     
1 38040U 11080A   24036.56810435 -.00000105  00000+0 -65198-5 0  9993
2 38040  52.0006 123.4083 0000794  95.6904  10.0333 12.62270594560104
GLOBALSTAR M080 [+]     
1 38041U 11080B   24037.00504211 -.00000117  00000+0 -71396-4 0  9995
2 38041  52.0057 123.5109 0000702  84.5126 327.1535 12.62268612560141
GLOBALSTAR M082 [+]     
1 38042U 11080C   24037.51435328 -.00000088  00000+0  88448-4 0  9996
2 38042  52.0078  77.3538 0000940 156.7747 351.0252 12.62265756560948
GLOBALSTAR M092 [+]     
1 38043U 11080D   24036.68694465 -.00000095  00000+0  50480-4 0  9996
2 38043  52.0074 170.2237 0001117  97.0460   7.2449 12.62276296559127
GLOBALSTAR M090 [+]     
1 38044U 11080E   24036.51202418 -.00000084  00000+0  10867-3 0  9994
2 38044  51.9886  74.8529 0000596 147.4721   4.2534 12.62265910560765
GLOBALSTAR M086 [+]     
1 38045U 11080F   24036.54134149 -.00000097  00000+0  37388-4 0  9995
2 38045  51.9898  75.2773 0000497 286.0027 238.2625 12.62266906560715
GLOBALSTAR M097 [+]     
1 39072U 13005A   24036.61061671 -.00000099  00000+0  25340-4 0  9999
2 39072  52.0077 349.1068 0000132  66.7967 293.2914 12.62260361508059
GLOBALSTAR M093 [+]     
1 39073U 13005B   24036.90084515 -.00000090  00000+0  75995-4 0  9996
2 39073  51.9842 342.3223 0000054  20.4765 339.6103 12.62260554507960
